1 43013U 17073A   26140.93451431  .00000059  00000+0  49052-4 0  9999
2 43013  98.7764  80.6409 0001243  43.0058 317.1215 14.19506091440601
